{"type": "FeatureCollection", "features": [ {"type": "Feature", "properties": {"norad_id": 42741, "name": "EUTELSAT 172B", "group": "eutelsat", "lat": 0.00040207859361560616, "lon": 33.896435297267395, "alt_km": 35785.49109407833, "timestamp": "2025-12-18T08:58:43.063565+00:00", "meta": {"OBJECT_NAME": "EUTELSAT 172B", "OBJECT_ID": "2017-029B", "EPOCH": "2025-12-17T19:16:48.336672", "MEAN_MOTION": 1.00272275, "ECCENTRICITY": 2.088e-05, "INCLINATION": 0.0467, "RA_OF_ASC_NODE": 146.77, "ARG_OF_PERICENTER": 308.0341, "MEAN_ANOMALY": 93.0643, "EPHEMERIS_TYPE": 0, "CLASSIFICATION_TYPE": "U", "NORAD_CAT_ID": 42741, "ELEMENT_SET_NO": 999, "REV_AT_EPOCH": 3191, "BSTAR": 0, "MEAN_MOTION_DOT": 2e-07, "MEAN_MOTION_DDOT": 0}, "tle": {"line1": "1 42741U 17029B   25351.80333723  .00000020  00000+0  00000+0 0  9992", "line2": "2 42741   0.0467 146.7700 0000208 308.0341  93.0643  1.00272275 31916"}}, "geometry": {"type": "Point", "coordinates": [33.896435297267395, 0.00040207859361560616]}}, {"type": "Feature", "properties": {"norad_id": 44334, "name": "EUTELSAT 7C", "group": "eutelsat", "lat": 0.025153073844554796, "lon": -131.11872070740776, "alt_km": 35774.17936485697, "timestamp": "2025-12-18T08:58:43.063578+00:00", "meta": {"OBJECT_NAME": "EUTELSAT 7C", "OBJECT_ID": "2019-034B", "EPOCH": "2025-12-17T18:29:45.341952", "MEAN_MOTION": 1.00271366, "ECCENTRICITY": 0.00030213, "INCLINATION": 0.0726, "RA_OF_ASC_NODE": 178.5781, "ARG_OF_PERICENTER": 70.8485, "MEAN_ANOMALY": 121.644, "EPHEMERIS_TYPE": 0, "CLASSIFICATION_TYPE": "U", "NORAD_CAT_ID": 44334, "ELEMENT_SET_NO": 999, "REV_AT_EPOCH": 501, "BSTAR": 0, "MEAN_MOTION_DOT": 7.3e-07, "MEAN_MOTION_DDOT": 0}, "tle": {"line1": "1 44334U 19034B   25351.77066368  .00000073  00000+0  00000+0 0  9992", "line2": "2 44334   0.0726 178.5781 0003021  70.8485 121.6440  1.00271366  5010"}}, "geometry": {"type": "Point", "coordinates": [-131.11872070740776, 0.025153073844554796]}}, {"type": "Feature", "properties": {"norad_id": 44624, "name": "EUTELSAT 5 WEST B", "group": "eutelsat", "lat": -0.08558084329322581, "lon": -143.1159097523311, "alt_km": 35778.27066678879, "timestamp": "2025-12-18T08:58:43.063591+00:00", "meta": {"OBJECT_NAME": "EUTELSAT 5 WEST B", "OBJECT_ID": "2019-067A", "EPOCH": "2025-12-17T18:26:15.676800", "MEAN_MOTION": 1.00270214, "ECCENTRICITY": 0.00030814, "INCLINATION": 0.0703, "RA_OF_ASC_NODE": 329.9765, "ARG_OF_PERICENTER": 297.7811, "MEAN_ANOMALY": 90.458, "EPHEMERIS_TYPE": 0, "CLASSIFICATION_TYPE": "U", "NORAD_CAT_ID": 44624, "ELEMENT_SET_NO": 999, "REV_AT_EPOCH": 2261, "BSTAR": 0, "MEAN_MOTION_DOT": -1.7e-07, "MEAN_MOTION_DDOT": 0}, "tle": {"line1": "1 44624U 19067A   25351.76823700 -.00000017  00000+0  00000+0 0  9999", "line2": "2 44624   0.0703 329.9765 0003081 297.7811  90.4580  1.00270214 22614"}}, "geometry": {"type": "Point", "coordinates": [-143.1159097523311, -0.08558084329322581]}}, {"type": "Feature", "properties": {"norad_id": 45027, "name": "EUTELSAT KONNECT", "group": "eutelsat", "lat": 0.02332705266217102, "lon": -130.90538462495923, "alt_km": 35782.994396760456, "timestamp": "2025-12-18T08:58:43.063603+00:00", "meta": {"OBJECT_NAME": "EUTELSAT KONNECT", "OBJECT_ID": "2020-005B", "EPOCH": "2025-12-17T18:29:45.341952", "MEAN_MOTION": 1.00271708, "ECCENTRICITY": 0.00013012, "INCLINATION": 0.0711, "RA_OF_ASC_NODE": 96.0401, "ARG_OF_PERICENTER": 189.4666, "MEAN_ANOMALY": 85.7765, "EPHEMERIS_TYPE": 0, "CLASSIFICATION_TYPE": "U", "NORAD_CAT_ID": 45027, "ELEMENT_SET_NO": 999, "REV_AT_EPOCH": 2251, "BSTAR": 0, "MEAN_MOTION_DOT": 7.4e-07, "MEAN_MOTION_DDOT": 0}, "tle": {"line1": "1 45027U 20005B   25351.77066368  .00000074  00000+0  00000+0 0  9993", "line2": "2 45027   0.0711  96.0401 0001301 189.4666  85.7765  1.00271708 22518"}}, "geometry": {"type": "Point", "coordinates": [-130.90538462495923, 0.02332705266217102]}}, {"type": "Feature", "properties": {"norad_id": 49056, "name": "EUTELSAT QUANTUM", "group": "eutelsat", "lat": -0.037444040685932725, "lon": -90.39428859297047, "alt_km": 35772.24570355689, "timestamp": "2025-12-18T08:58:43.063615+00:00", "meta": {"OBJECT_NAME": "EUTELSAT QUANTUM", "OBJECT_ID": "2021-069B", "EPOCH": "2025-12-17T20:42:38.695104", "MEAN_MOTION": 1.00271046, "ECCENTRICITY": 0.00033356, "INCLINATION": 0.014, "RA_OF_ASC_NODE": 16.9545, "ARG_OF_PERICENTER": 260.7488, "MEAN_ANOMALY": 167.3985, "EPHEMERIS_TYPE": 0, "CLASSIFICATION_TYPE": "U", "NORAD_CAT_ID": 49056, "ELEMENT_SET_NO": 999, "REV_AT_EPOCH": 1611, "BSTAR": 0, "MEAN_MOTION_DOT": 1.51e-06, "MEAN_MOTION_DDOT": 0}, "tle": {"line1": "1 49056U 21069B   25351.86294786  .00000151  00000+0  00000+0 0  9993", "line2": "2 49056   0.0140  16.9545 0003335 260.7488 167.3985  1.00271046 16119"}}, "geometry": {"type": "Point", "coordinates": [-90.39428859297047, -0.037444040685932725]}}, {"type": "Feature", "properties": {"norad_id": 53765, "name": "EUTELSAT KONNECT VHTS", "group": "eutelsat", "lat": 0.027106359647620846, "lon": -135.37534394801818, "alt_km": 35777.10996810472, "timestamp": "2025-12-18T08:58:43.063627+00:00", "meta": {"OBJECT_NAME": "EUTELSAT KONNECT VHTS", "OBJECT_ID": "2022-110A", "EPOCH": "2025-12-16T21:55:49.974240", "MEAN_MOTION": 1.00270385, "ECCENTRICITY": 0.00023075, "INCLINATION": 0.0652, "RA_OF_ASC_NODE": 101.283, "ARG_OF_PERICENTER": 141.3704, "MEAN_ANOMALY": 174.8367, "EPHEMERIS_TYPE": 0, "CLASSIFICATION_TYPE": "U", "NORAD_CAT_ID": 53765, "ELEMENT_SET_NO": 999, "REV_AT_EPOCH": 499, "BSTAR": 0, "MEAN_MOTION_DOT": 4.1e-07, "MEAN_MOTION_DDOT": 0}, "tle": {"line1": "1 53765U 22110A   25350.91377285  .00000041  00000+0  00000+0 0  9992", "line2": "2 53765   0.0652 101.2830 0002307 141.3704 174.8367  1.00270385  4992"}}, "geometry": {"type": "Point", "coordinates": [-135.37534394801818, 0.027106359647620846]}}, {"type": "Feature", "properties": {"norad_id": 54048, "name": "EUTELSAT HOTBIRD 13F", "group": "eutelsat", "lat": -0.06446568709193654, "lon": -125.1217844612882, "alt_km": 35792.10446421104, "timestamp": "2025-12-18T08:58:43.063639+00:00", "meta": {"OBJECT_NAME": "EUTELSAT HOTBIRD 13F", "OBJECT_ID": "2022-134A", "EPOCH": "2025-12-17T18:31:22.686240", "MEAN_MOTION": 1.00271349, "ECCENTRICITY": 0.00022128, "INCLINATION": 0.0531, "RA_OF_ASC_NODE": 292.166, "ARG_OF_PERICENTER": 72.4278, "MEAN_ANOMALY": 12.8877, "EPHEMERIS_TYPE": 0, "CLASSIFICATION_TYPE": "U", "NORAD_CAT_ID": 54048, "ELEMENT_SET_NO": 999, "REV_AT_EPOCH": 1155, "BSTAR": 0, "MEAN_MOTION_DOT": 1.12e-06, "MEAN_MOTION_DDOT": 0}, "tle": {"line1": "1 54048U 22134A   25351.77179035  .00000112  00000+0  00000+0 0  9990", "line2": "2 54048   0.0531 292.1660 0002212  72.4278  12.8877  1.00271349 11557"}}, "geometry": {"type": "Point", "coordinates": [-125.1217844612882, -0.06446568709193654]}}, {"type": "Feature", "properties": {"norad_id": 54225, "name": "EUTELSAT HOTBIRD 13G", "group": "eutelsat", "lat": -0.026040995844774737, "lon": -125.0852369338808, "alt_km": 35782.23818038922, "timestamp": "2025-12-18T08:58:43.063651+00:00", "meta": {"OBJECT_NAME": "EUTELSAT HOTBIRD 13G", "OBJECT_ID": "2022-146A", "EPOCH": "2025-12-17T18:31:22.686240", "MEAN_MOTION": 1.00271375, "ECCENTRICITY": 0.00019269, "INCLINATION": 0.0522, "RA_OF_ASC_NODE": 235.4156, "ARG_OF_PERICENTER": 298.3682, "MEAN_ANOMALY": 203.6955, "EPHEMERIS_TYPE": 0, "CLASSIFICATION_TYPE": "U", "NORAD_CAT_ID": 54225, "ELEMENT_SET_NO": 999, "REV_AT_EPOCH": 564, "BSTAR": 0, "MEAN_MOTION_DOT": 1.12e-06, "MEAN_MOTION_DDOT": 0}, "tle": {"line1": "1 54225U 22146A   25351.77179035  .00000112  00000+0  00000+0 0  9990", "line2": "2 54225   0.0522 235.4156 0001926 298.3682 203.6955  1.00271375  5642"}}, "geometry": {"type": "Point", "coordinates": [-125.0852369338808, -0.026040995844774737]}}, {"type": "Feature", "properties": {"norad_id": 54259, "name": "EUTELSAT 10B", "group": "eutelsat", "lat": 0.013625935921167594, "lon": -128.08166155531947, "alt_km": 35785.64975786661, "timestamp": "2025-12-18T08:58:43.063662+00:00", "meta": {"OBJECT_NAME": "EUTELSAT 10B", "OBJECT_ID": "2022-157A", "EPOCH": "2025-12-17T18:30:37.758240", "MEAN_MOTION": 1.00277655, "ECCENTRICITY": 9.541e-05, "INCLINATION": 0.0602, "RA_OF_ASC_NODE": 99.2885, "ARG_OF_PERICENTER": 24.5872, "MEAN_ANOMALY": 250.4145, "EPHEMERIS_TYPE": 0, "CLASSIFICATION_TYPE": "U", "NORAD_CAT_ID": 54259, "ELEMENT_SET_NO": 999, "REV_AT_EPOCH": 1120, "BSTAR": 0, "MEAN_MOTION_DOT": 9.4e-07, "MEAN_MOTION_DDOT": 0}, "tle": {"line1": "1 54259U 22157A   25351.77127035  .00000094  00000+0  00000+0 0  9991", "line2": "2 54259   0.0602  99.2885 0000954  24.5872 250.4145  1.00277655 11200"}}, "geometry": {"type": "Point", "coordinates": [-128.08166155531947, 0.013625935921167594]}}, {"type": "Feature", "properties": {"norad_id": 59346, "name": "EUTELSAT 36D", "group": "eutelsat", "lat": -0.0475511096296184, "lon": -102.2692210607971, "alt_km": 35786.73687015068, "timestamp": "2025-12-18T08:58:43.063674+00:00", "meta": {"OBJECT_NAME": "EUTELSAT 36D", "OBJECT_ID": "2024-059A", "EPOCH": "2025-12-17T20:50:38.634144", "MEAN_MOTION": 1.00271863, "ECCENTRICITY": 6.433e-05, "INCLINATION": 0.0249, "RA_OF_ASC_NODE": 12.684, "ARG_OF_PERICENTER": 350.764, "MEAN_ANOMALY": 71.7843, "EPHEMERIS_TYPE": 0, "CLASSIFICATION_TYPE": "U", "NORAD_CAT_ID": 59346, "ELEMENT_SET_NO": 999, "REV_AT_EPOCH": 632, "BSTAR": 0, "MEAN_MOTION_DOT": 0, "MEAN_MOTION_DDOT": 0}, "tle": {"line1": "1 59346U 24059A   25351.86850271  .00000000  00000+0  00000+0 0  9998", "line2": "2 59346   0.0249  12.6840 0000643 350.7640  71.7843  1.00271863  6322"}}, "geometry": {"type": "Point", "coordinates": [-102.2692210607971, -0.0475511096296184]}}]}